{"type": "FeatureCollection", "features": [ {"type": "Feature", "properties": {"norad_id": 34736, "name": "COSMOS 2251 DEB", "group": "cosmos-2251-debris", "lat": 45.44408073829465, "lon": 54.26203635346057, "alt_km": 414.5179619747778, "timestamp": "2025-12-12T05:47:29.166455+00:00", "meta": {"OBJECT_NAME": "COSMOS 2251 DEB", "OBJECT_ID": "1993-036ZE", "EPOCH": "2025-12-11T12:30:45.529056", "MEAN_MOTION": 15.46488649, "ECCENTRICITY": 0.00172061, "INCLINATION": 74.0016, "RA_OF_ASC_NODE": 38.8949, "ARG_OF_PERICENTER": 348.4134, "MEAN_ANOMALY": 11.6678, "EPHEMERIS_TYPE": 0, "CLASSIFICATION_TYPE": "U", "NORAD_CAT_ID": 34736, "ELEMENT_SET_NO": 999, "REV_AT_EPOCH": 88429, "BSTAR": 0.012966163, "MEAN_MOTION_DOT": 0.00697379, "MEAN_MOTION_DDOT": 0}, "tle": {"line1": "1 34736U 93036ZE  25345.52136029  .00697379  00000+0  12966-1 0  9996", "line2": "2 34736  74.0016  38.8949 0017206 348.4134  11.6678 15.46488649884292"}}, "geometry": {"type": "Point", "coordinates": [54.26203635346057, 45.44408073829465]}}, {"type": "Feature", "properties": {"norad_id": 34738, "name": "COSMOS 2251 DEB", "group": "cosmos-2251-debris", "lat": 43.94137299129099, "lon": -51.83944146373122, "alt_km": 764.6654987726542, "timestamp": "2025-12-12T05:47:29.166465+00:00", "meta": {"OBJECT_NAME": "COSMOS 2251 DEB", "OBJECT_ID": "1993-036ZG", "EPOCH": "2025-12-11T21:26:26.744640", "MEAN_MOTION": 14.4629911, "ECCENTRICITY": 0.00473665, "INCLINATION": 74.0143, "RA_OF_ASC_NODE": 144.8478, "ARG_OF_PERICENTER": 291.2709, "MEAN_ANOMALY": 191.7581, "EPHEMERIS_TYPE": 0, "CLASSIFICATION_TYPE": "U", "NORAD_CAT_ID": 34738, "ELEMENT_SET_NO": 999, "REV_AT_EPOCH": 87846, "BSTAR": 0.0005057283, "MEAN_MOTION_DOT": 1.81e-05, "MEAN_MOTION_DDOT": 0}, "tle": {"line1": "1 34738U 93036ZG  25345.89336510  .00001810  00000+0  50573-3 0  9992", "line2": "2 34738  74.0143 144.8478 0047366 291.2709 191.7581 14.46299110878460"}}, "geometry": {"type": "Point", "coordinates": [-51.83944146373122, 43.94137299129099]}}, {"type": "Feature", "properties": {"norad_id": 34750, "name": "COSMOS 2251 DEB", "group": "cosmos-2251-debris", "lat": -73.40472355100707, "lon": 95.62713453836982, "alt_km": 704.8371440938972, "timestamp": "2025-12-12T05:47:29.166476+00:00", "meta": {"OBJECT_NAME": "COSMOS 2251 DEB", "OBJECT_ID": "1993-036ZU", "EPOCH": "2025-12-11T19:18:21.474144", "MEAN_MOTION": 14.61306354, "ECCENTRICITY": 0.00388817, "INCLINATION": 74.1083, "RA_OF_ASC_NODE": 203.5318, "ARG_OF_PERICENTER": 156.9371, "MEAN_ANOMALY": 330.3942, "EPHEMERIS_TYPE": 0, "CLASSIFICATION_TYPE": "U", "NORAD_CAT_ID": 34750, "ELEMENT_SET_NO": 999, "REV_AT_EPOCH": 88217, "BSTAR": 0.0015476938, "MEAN_MOTION_DOT": 7.704e-05, "MEAN_MOTION_DDOT": 0}, "tle": {"line1": "1 34750U 93036ZU  25345.80441521  .00007704  00000+0  15477-2 0  9997", "line2": "2 34750  74.1083 203.5318 0038881 156.9371 330.3942 14.61306354882179"}}, "geometry": {"type": "Point", "coordinates": [95.62713453836982, -73.40472355100707]}}, {"type": "Feature", "properties": {"norad_id": 34752, "name": "COSMOS 2251 DEB", "group": "cosmos-2251-debris", "lat": -22.869234978172877, "lon": -5.325225899752259, "alt_km": 602.1356355469252, "timestamp": "2025-12-12T05:47:29.166486+00:00", "meta": {"OBJECT_NAME": "COSMOS 2251 DEB", "OBJECT_ID": "1993-036ZW", "EPOCH": "2025-12-11T10:41:19.624128", "MEAN_MOTION": 14.99882801, "ECCENTRICITY": 0.00479, "INCLINATION": 74.0135, "RA_OF_ASC_NODE": 3.2389, "ARG_OF_PERICENTER": 132.0922, "MEAN_ANOMALY": 228.4354, "EPHEMERIS_TYPE": 0, "CLASSIFICATION_TYPE": "U", "NORAD_CAT_ID": 34752, "ELEMENT_SET_NO": 999, "REV_AT_EPOCH": 89830, "BSTAR": 0.0016697464, "MEAN_MOTION_DOT": 0.00021236, "MEAN_MOTION_DDOT": 0}, "tle": {"line1": "1 34752U 93036ZW  25345.44536602  .00021236  00000+0  16697-2 0  9995", "line2": "2 34752  74.0135   3.2389 0047900 132.0922 228.4354 14.99882801898303"}}, "geometry": {"type": "Point", "coordinates": [-5.325225899752259, -22.869234978172877]}}, {"type": "Feature", "properties": {"norad_id": 34754, "name": "COSMOS 2251 DEB", "group": "cosmos-2251-debris", "lat": 53.85964269434616, "lon": -108.38916837220637, "alt_km": 745.0845837063207, "timestamp": "2025-12-12T05:47:29.166496+00:00", "meta": {"OBJECT_NAME": "COSMOS 2251 DEB", "OBJECT_ID": "1993-036ZY", "EPOCH": "2025-12-11T20:04:50.181888", "MEAN_MOTION": 14.40479713, "ECCENTRICITY": 0.00295299, "INCLINATION": 74.0303, "RA_OF_ASC_NODE": 229.2728, "ARG_OF_PERICENTER": 345.5442, "MEAN_ANOMALY": 133.9429, "EPHEMERIS_TYPE": 0, "CLASSIFICATION_TYPE": "U", "NORAD_CAT_ID": 34754, "ELEMENT_SET_NO": 999, "REV_AT_EPOCH": 88120, "BSTAR": 0.00032271204, "MEAN_MOTION_DOT": 1.005e-05, "MEAN_MOTION_DDOT": 0}, "tle": {"line1": "1 34754U 93036ZY  25345.83669192  .00001005  00000+0  32271-3 0  9990", "line2": "2 34754  74.0303 229.2728 0029529 345.5442 133.9429 14.40479713881208"}}, "geometry": {"type": "Point", "coordinates": [-108.38916837220637, 53.85964269434616]}}, {"type": "Feature", "properties": {"norad_id": 34755, "name": "COSMOS 2251 DEB", "group": "cosmos-2251-debris", "lat": -30.955867812069513, "lon": -79.13209955644203, "alt_km": 783.8962907916075, "timestamp": "2025-12-12T05:47:29.166507+00:00", "meta": {"OBJECT_NAME": "COSMOS 2251 DEB", "OBJECT_ID": "1993-036ZZ", "EPOCH": "2025-12-11T14:55:03.161568", "MEAN_MOTION": 13.50554631, "ECCENTRICITY": 0.04083101, "INCLINATION": 73.9258, "RA_OF_ASC_NODE": 291.8222, "ARG_OF_PERICENTER": 311.8419, "MEAN_ANOMALY": 242.47, "EPHEMERIS_TYPE": 0, "CLASSIFICATION_TYPE": "U", "NORAD_CAT_ID": 34755, "ELEMENT_SET_NO": 999, "REV_AT_EPOCH": 82508, "BSTAR": 0.0023536952, "MEAN_MOTION_DOT": 2.517e-05, "MEAN_MOTION_DDOT": 0}, "tle": {"line1": "1 34755U 93036ZZ  25345.62156437  .00002517  00000+0  23537-2 0  9994", "line2": "2 34755  73.9258 291.8222 0408310 311.8419 242.4700 13.50554631825084"}}, "geometry": {"type": "Point", "coordinates": [-79.13209955644203, -30.955867812069513]}}, {"type": "Feature", "properties": {"norad_id": 34756, "name": "COSMOS 2251 DEB", "group": "cosmos-2251-debris", "lat": -19.287269581704045, "lon": -69.0489932645832, "alt_km": 1209.046787111347, "timestamp": "2025-12-12T05:47:29.166517+00:00", "meta": {"OBJECT_NAME": "COSMOS 2251 DEB", "OBJECT_ID": "1993-036AAA", "EPOCH": "2025-12-11T14:45:00.607104", "MEAN_MOTION": 13.67238778, "ECCENTRICITY": 0.03449804, "INCLINATION": 74.0026, "RA_OF_ASC_NODE": 106.2197, "ARG_OF_PERICENTER": 342.2771, "MEAN_ANOMALY": 16.6544, "EPHEMERIS_TYPE": 0, "CLASSIFICATION_TYPE": "U", "NORAD_CAT_ID": 34756, "ELEMENT_SET_NO": 999, "REV_AT_EPOCH": 83406, "BSTAR": 0.0012772103, "MEAN_MOTION_DOT": 1.595e-05, "MEAN_MOTION_DDOT": 0}, "tle": {"line1": "1 34756U 93036AAA 25345.61459036  .00001595  00000+0  12772-2 0  9999", "line2": "2 34756  74.0026 106.2197 0344980 342.2771  16.6544 13.67238778834065"}}, "geometry": {"type": "Point", "coordinates": [-69.0489932645832, -19.287269581704045]}}, {"type": "Feature", "properties": {"norad_id": 34758, "name": "COSMOS 2251 DEB", "group": "cosmos-2251-debris", "lat": -31.523066954112377, "lon": -69.76375224912029, "alt_km": 1072.07384237115, "timestamp": "2025-12-12T05:47:29.166527+00:00", "meta": {"OBJECT_NAME": "COSMOS 2251 DEB", "OBJECT_ID": "1993-036AAC", "EPOCH": "2025-12-11T06:58:07.203360", "MEAN_MOTION": 13.580618, "ECCENTRICITY": 0.03811247, "INCLINATION": 74.1076, "RA_OF_ASC_NODE": 301.8294, "ARG_OF_PERICENTER": 65.8978, "MEAN_ANOMALY": 298.1504, "EPHEMERIS_TYPE": 0, "CLASSIFICATION_TYPE": "U", "NORAD_CAT_ID": 34758, "ELEMENT_SET_NO": 999, "REV_AT_EPOCH": 82890, "BSTAR": 0.0018686561, "MEAN_MOTION_DOT": 2.154e-05, "MEAN_MOTION_DDOT": 0}, "tle": {"line1": "1 34758U 93036AAC 25345.29036115  .00002154  00000+0  18687-2 0  9997", "line2": "2 34758  74.1076 301.8294 0381124  65.8978 298.1504 13.58061800828901"}}, "geometry": {"type": "Point", "coordinates": [-69.76375224912029, -31.523066954112377]}}, {"type": "Feature", "properties": {"norad_id": 34760, "name": "COSMOS 2251 DEB", "group": "cosmos-2251-debris", "lat": 62.646836640347274, "lon": 89.72283951408694, "alt_km": 851.4811794531724, "timestamp": "2025-12-12T05:47:29.166537+00:00", "meta": {"OBJECT_NAME": "COSMOS 2251 DEB", "OBJECT_ID": "1993-036AAE", "EPOCH": "2025-12-11T20:57:04.029120", "MEAN_MOTION": 14.19565488, "ECCENTRICITY": 0.00967412, "INCLINATION": 74.0637, "RA_OF_ASC_NODE": 303.9064, "ARG_OF_PERICENTER": 356.2172, "MEAN_ANOMALY": 33.6085, "EPHEMERIS_TYPE": 0, "CLASSIFICATION_TYPE": "U", "NORAD_CAT_ID": 34760, "ELEMENT_SET_NO": 999, "REV_AT_EPOCH": 86676, "BSTAR": 0.0010971402, "MEAN_MOTION_DOT": 2.4e-05, "MEAN_MOTION_DDOT": 0}, "tle": {"line1": "1 34760U 93036AAE 25345.87296330  .00002400  00000+0  10971-2 0  9993", "line2": "2 34760  74.0637 303.9064 0096741 356.2172  33.6085 14.19565488866766"}}, "geometry": {"type": "Point", "coordinates": [89.72283951408694, 62.646836640347274]}}, {"type": "Feature", "properties": {"norad_id": 34761, "name": "COSMOS 2251 DEB", "group": "cosmos-2251-debris", "lat": -1.9608163775505423, "lon": 3.1483645474620725, "alt_km": 747.8507129646641, "timestamp": "2025-12-12T05:47:29.166548+00:00", "meta": {"OBJECT_NAME": "COSMOS 2251 DEB", "OBJECT_ID": "1993-036AAF", "EPOCH": "2025-12-12T00:47:31.341696", "MEAN_MOTION": 14.38045208, "ECCENTRICITY": 0.00363702, "INCLINATION": 74.0296, "RA_OF_ASC_NODE": 4.0938, "ARG_OF_PERICENTER": 38.4002, "MEAN_ANOMALY": 321.973, "EPHEMERIS_TYPE": 0, "CLASSIFICATION_TYPE": "U", "NORAD_CAT_ID": 34761, "ELEMENT_SET_NO": 999, "REV_AT_EPOCH": 87639, "BSTAR": 0.00091754994, "MEAN_MOTION_DOT": 2.774e-05, "MEAN_MOTION_DDOT": 0}, "tle": {"line1": "1 34761U 93036AAF 25346.03300164  .00002774  00000+0  91755-3 0  9998", "line2": "2 34761  74.0296   4.0938 0036370  38.4002 321.9730 14.38045208876394"}}, "geometry": {"type": "Point", "coordinates": [3.1483645474620725, -1.9608163775505423]}}]}